[{"OBJECT_NAME":"STARLINK-30810","OBJECT_ID":"2023-167D","EPOCH":"2026-03-08T06:33:35.305920","MEAN_MOTION":15.2674031,"ECCENTRICITY":5.138e-5,"INCLINATION":42.9955,"RA_OF_ASC_NODE":150.9596,"ARG_OF_PERICENTER":285.2891,"MEAN_ANOMALY":74.7904,"EPHEMERIS_TYPE":0,"CLASSIFICATION_TYPE":"U","NORAD_CAT_ID":58178,"ELEMENT_SET_NO":999,"REV_AT_EPOCH":13077,"BSTAR":-7.0786315e-5,"MEAN_MOTION_DOT":-2.157e-5,"MEAN_MOTION_DDOT":0},{"OBJECT_NAME":"TIANMU-1 12","OBJECT_ID":"2023-205B","EPOCH":"2026-03-09T23:16:21.235872","MEAN_MOTION":15.25812065,"ECCENTRICITY":0.00067383,"INCLINATION":97.3538,"RA_OF_ASC_NODE":91.8946,"ARG_OF_PERICENTER":353.283,"MEAN_ANOMALY":6.8317,"EPHEMERIS_TYPE":0,"CLASSIFICATION_TYPE":"U","NORAD_CAT_ID":58646,"ELEMENT_SET_NO":999,"REV_AT_EPOCH":12237,"BSTAR":0.00029269543,"MEAN_MOTION_DOT":7.417e-5,"MEAN_MOTION_DDOT":0}]
